start=new Date('2022-03-31T00:00:00.000Z').valueOf();
sats=[{"FILE":"3380787","PERIAPSIS":"365.716","DECAY_DATE":null,"BSTAR":"-0.00741910000000","SEMIMAJOR_AXIS":"6746.247","OBJECT_ID":"2021-082AY","MEAN_MOTION_DOT":"-0.00720455","LAUNCH_DATE":"2021-09-14","PERIOD":"91.908","ELEMENT_SET_NO":"999","REV_AT_EPOCH":"371","SITE":"AFWTR","TLE_LINE1":"1 49176U 21082AY  22089.91667824 -.00720455  00000-0 -74191-2 0  9993","NORAD_CAT_ID":"49176","MEAN_MOTION_DDOT":"0.0000000000000","EPOCH":"2022-03-30T22:00:00.999936","INCLINATION":"70.0001","REF_FRAME":"TEME","GP_ID":"200098828","OBJECT_TYPE":"PAYLOAD","APOAPSIS":"370.508","RA_OF_ASC_NODE":"290.8282","TLE_LINE2":"2 49176  70.0001 290.8282 0003552 267.5105 128.0848 15.66784950  3712","OBJECT_NAME":"STARLINK-3069","MEAN_ELEMENT_THEORY":"SGP4","RCS_SIZE":"LARGE","EPHEMERIS_TYPE":"0","CENTER_NAME":"EARTH","TIME_SYSTEM":"UTC","ECCENTRICITY":"0.00035520","CLASSIFICATION_TYPE":"U","ARG_OF_PERICENTER":"267.5105","MEAN_MOTION":"15.66784950","MEAN_ANOMALY":"128.0848","COUNTRY_CODE":"US"},{"MEAN_ANOMALY":"121.5380","COUNTRY_CODE":"US","CENTER_NAME":"EARTH","TIME_SYSTEM":"UTC","ECCENTRICITY":"0.00035520","CLASSIFICATION_TYPE":"U","ARG_OF_PERICENTER":"265.9945","MEAN_MOTION":"15.66552357","TLE_LINE2":"2 49177  70.0001 290.8345 0003552 265.9945 121.5380 15.66552357  3710","OBJECT_NAME":"STARLINK-3103","MEAN_ELEMENT_THEORY":"SGP4","RCS_SIZE":"LARGE","EPHEMERIS_TYPE":"0","OBJECT_TYPE":"PAYLOAD","RA_OF_ASC_NODE":"290.8345","APOAPSIS":"371.176","GP_ID":"200099580","NORAD_CAT_ID":"49177","MEAN_MOTION_DDOT":"0.0000000000000","EPOCH":"2022-03-30T22:00:00.999936","INCLINATION":"70.0001","REF_FRAME":"TEME","LAUNCH_DATE":"2021-09-14","PERIOD":"91.922","ELEMENT_SET_NO":"999","SITE":"AFWTR","REV_AT_EPOCH":"371","TLE_LINE1":"1 49177U 21082AZ  22089.91667824 -.00720558  00000-0 -74905-2 0  9991","PERIAPSIS":"366.383","FILE":"3380787","DECAY_DATE":null,"BSTAR":"-0.00749050000000","SEMIMAJOR_AXIS":"6746.915","OBJECT_ID":"2021-082AZ","MEAN_MOTION_DOT":"-0.00720558"},{"MEAN_ELEMENT_THEORY":"SGP4","TLE_LINE2":"2 49178  70.0005 324.6218 0003437 283.7172 306.5816 14.98330780  3595","OBJECT_NAME":"STARLINK-3086","EPHEMERIS_TYPE":"0","RCS_SIZE":"LARGE","OBJECT_TYPE":"PAYLOAD","RA_OF_ASC_NODE":"324.6218","APOAPSIS":"574.444","MEAN_ANOMALY":"306.5816","COUNTRY_CODE":"US","CENTER_NAME":"EARTH","MEAN_MOTION":"14.98330780","ECCENTRICITY":"0.00034370","TIME_SYSTEM":"UTC","ARG_OF_PERICENTER":"283.7172","CLASSIFICATION_TYPE":"U","PERIOD":"96.107","LAUNCH_DATE":"2021-09-14","TLE_LINE1":"1 49178U 21082BA  22089.91667824  .00004261  00000-0  36466-3 0  9997","ELEMENT_SET_NO":"999","REV_AT_EPOCH":"359","SITE":"AFWTR","BSTAR":"0.00036466000000","FILE":"3380787","PERIAPSIS":"569.667","DECAY_DATE":null,"MEAN_MOTION_DOT":"0.00004261","OBJECT_ID":"2021-082BA","SEMIMAJOR_AXIS":"6950.190","GP_ID":"200099330","NORAD_CAT_ID":"49178","INCLINATION":"70.0005","REF_FRAME":"TEME","MEAN_MOTION_DDOT":"0.0000000000000","EPOCH":"2022-03-30T22:00:00.999936"},{"EPHEMERIS_TYPE":"0","RCS_SIZE":"LARGE","MEAN_ELEMENT_THEORY":"SGP4","OBJECT_NAME":"STARLINK-3043","TLE_LINE2":"2 49179  70.0001 290.8326 0003563 265.7044 124.8776 15.66677699  3713","APOAPSIS":"370.824","RA_OF_ASC_NODE":"290.8326","OBJECT_TYPE":"PAYLOAD","COUNTRY_CODE":"US","MEAN_ANOMALY":"124.8776","MEAN_MOTION":"15.66677699","ARG_OF_PERICENTER":"265.7044","CLASSIFICATION_TYPE":"U","TIME_SYSTEM":"UTC","ECCENTRICITY":"0.00035630","CENTER_NAME":"EARTH","TLE_LINE1":"1 49179U 21082BB  22089.91667824 -.00720501  00000-0 -74519-2 0  9992","SITE":"AFWTR","REV_AT_EPOCH":"371","ELEMENT_SET_NO":"999","PERIOD":"91.914","LAUNCH_DATE":"2021-09-14","MEAN_MOTION_DOT":"-0.00720501","OBJECT_ID":"2021-082BB","SEMIMAJOR_AXIS":"6746.555","BSTAR":"-0.00745190000000","DECAY_DATE":null,"FILE":"3380787","PERIAPSIS":"366.016","GP_ID":"200098078","REF_FRAME":"TEME","INCLINATION":"70.0001","EPOCH":"2022-03-30T22:00:00.999936","MEAN_MOTION_DDOT":"0.0000000000000","NORAD_CAT_ID":"49179"},{"MEAN_ANOMALY":"48.8800","COUNTRY_CODE":"US","ECCENTRICITY":"0.00029740","TIME_SYSTEM":"UTC","ARG_OF_PERICENTER":"272.1605","CLASSIFICATION_TYPE":"U","MEAN_MOTION":"14.96701539","CENTER_NAME":"EARTH","RCS_SIZE":"LARGE","EPHEMERIS_TYPE":"0","TLE_LINE2":"2 49180  69.9999 303.6800 0002974 272.1605  48.8800 14.96701539  3590","OBJECT_NAME":"STARLINK-3050","MEAN_ELEMENT_THEORY":"SGP4","OBJECT_TYPE":"PAYLOAD","RA_OF_ASC_NODE":"303.6800","APOAPSIS":"579.167","GP_ID":"200098328","MEAN_MOTION_DDOT":"0.0000000000000","EPOCH":"2022-03-30T22:00:00.999936","INCLINATION":"69.9999","REF_FRAME":"TEME","NORAD_CAT_ID":"49180","ELEMENT_SET_NO":"999","SITE":"AFWTR","REV_AT_EPOCH":"359","TLE_LINE1":"1 49180U 21082BC  22089.91667824  .00019104  00000-0  16731-2 0  9994","LAUNCH_DATE":"2021-09-14","PERIOD":"96.212","SEMIMAJOR_AXIS":"6955.233","OBJECT_ID":"2021-082BC","MEAN_MOTION_DOT":"0.00019104","FILE":"3380787","PERIAPSIS":"575.030","DECAY_DATE":null,"BSTAR":"0.00167310000000"},{"NORAD_CAT_ID":"49181","REF_FRAME":"TEME","INCLINATION":"70.0020","MEAN_MOTION_DDOT":"0.0000000000000","EPOCH":"2022-03-30T22:00:00.999936","GP_ID":"200099080","BSTAR":"0.00000699510000","DECAY_DATE":null,"PERIAPSIS":"569.685","FILE":"3380787","MEAN_MOTION_DOT":"-0.00000010","SEMIMAJOR_AXIS":"6950.178","OBJECT_ID":"2021-082BD","PERIOD":"96.107","LAUNCH_DATE":"2021-09-14","TLE_LINE1":"1 49181U 21082BD  22089.91667824 -.00000010  00000-0  69951-5 0  9997","REV_AT_EPOCH":"359","SITE":"AFWTR","ELEMENT_SET_NO":"999","CENTER_NAME":"EARTH","MEAN_MOTION":"14.98334678","CLASSIFICATION_TYPE":"U","ARG_OF_PERICENTER":"281.9294","ECCENTRICITY":"0.00033940","TIME_SYSTEM":"UTC","COUNTRY_CODE":"US","MEAN_ANOMALY":"51.1822","APOAPSIS":"574.402","RA_OF_ASC_NODE":"324.6334","OBJECT_TYPE":"PAYLOAD","MEAN_ELEMENT_THEORY":"SGP4","OBJECT_NAME":"STARLINK-3059","TLE_LINE2":"2 49181  70.0020 324.6334 0003394 281.9294  51.1822 14.98334678  3592","EPHEMERIS_TYPE":"0","RCS_SIZE":"LARGE"},{"COUNTRY_CODE":"US","MEAN_ANOMALY":"317.6859","CENTER_NAME":"EARTH","ARG_OF_PERICENTER":"36.7825","CLASSIFICATION_TYPE":"U","TIME_SYSTEM":"UTC","ECCENTRICITY":"0.00019710","MEAN_MOTION":"15.08873556","OBJECT_NAME":"STARLINK-3151","TLE_LINE2":"2 49408  53.2162 212.5210 0001971  36.7825 317.6859 15.08873556 22368","MEAN_ELEMENT_THEORY":"SGP4","RCS_SIZE":"LARGE","EPHEMERIS_TYPE":"0","RA_OF_ASC_NODE":"212.5210","APOAPSIS":"541.006","OBJECT_TYPE":"PAYLOAD","GP_ID":"200046867","NORAD_CAT_ID":"49408","MEAN_MOTION_DDOT":"0.0000000000000","EPOCH":"2022-03-30T22:00:00.999936","REF_FRAME":"TEME","INCLINATION":"53.2162","LAUNCH_DATE":"2021-11-13","PERIOD":"95.435","SITE":"AFETR","REV_AT_EPOCH":"2236","ELEMENT_SET_NO":"999","TLE_LINE1":"1 49408U 21104A   22089.91667824 -.00063787  00000-0 -40217-2 0  9996","DECAY_DATE":null,"PERIAPSIS":"538.279","FILE":"3380642","BSTAR":"-0.00402170000000","OBJECT_ID":"2021-104A","SEMIMAJOR_AXIS":"6917.778","MEAN_MOTION_DOT":"-0.00063787"},{"BSTAR":"-0.00348170000000","DECAY_DATE":null,"PERIAPSIS":"538.203","FILE":"3380787","MEAN_MOTION_DOT":"-0.00055305","OBJECT_ID":"2021-104B","SEMIMAJOR_AXIS":"6917.822","PERIOD":"95.436","LAUNCH_DATE":"2021-11-13","TLE_LINE1":"1 49409U 21104B   22089.91667824 -.00055305  00000-0 -34817-2 0  9993","SITE":"AFETR","REV_AT_EPOCH":"361","ELEMENT_SET_NO":"999","NORAD_CAT_ID":"49409","REF_FRAME":"TEME","INCLINATION":"53.2185","MEAN_MOTION_DDOT":"0.0000000000000","EPOCH":"2022-03-30T22:00:00.999936","GP_ID":"200099606","APOAPSIS":"541.170","RA_OF_ASC_NODE":"212.5157","OBJECT_TYPE":"PAYLOAD","MEAN_ELEMENT_THEORY":"SGP4","OBJECT_NAME":"STARLINK-3075","TLE_LINE2":"2 49409  53.2185 212.5157 0002145  40.0464 234.4397 15.08859264  3615","EPHEMERIS_TYPE":"0","RCS_SIZE":"LARGE","CENTER_NAME":"EARTH","MEAN_MOTION":"15.08859264","ARG_OF_PERICENTER":"40.0464","CLASSIFICATION_TYPE":"U","ECCENTRICITY":"0.00021450","TIME_SYSTEM":"UTC","COUNTRY_CODE":"US","MEAN_ANOMALY":"234.4397"},{"OBJECT_TYPE":"PAYLOAD","APOAPSIS":"541.080","RA_OF_ASC_NODE":"212.5225","RCS_SIZE":"LARGE","EPHEMERIS_TYPE":"0","TLE_LINE2":"2 49410  53.2155 212.5225 0002032  32.1192 282.3697 15.08863327  3615","OBJECT_NAME":"STARLINK-3147","MEAN_ELEMENT_THEORY":"SGP4","TIME_SYSTEM":"UTC","ECCENTRICITY":"0.00020320","ARG_OF_PERICENTER":"32.1192","CLASSIFICATION_TYPE":"U","MEAN_MOTION":"15.08863327","CENTER_NAME":"EARTH","MEAN_ANOMALY":"282.3697","COUNTRY_CODE":"US","SEMIMAJOR_AXIS":"6917.809","OBJECT_ID":"2021-104C","MEAN_MOTION_DOT":"-0.00064779","PERIAPSIS":"538.268","FILE":"3380787","DECAY_DATE":null,"BSTAR":"-0.00408620000000","ELEMENT_SET_NO":"999","REV_AT_EPOCH":"361","SITE":"AFETR","TLE_LINE1":"1 49410U 21104C   22089.91667824 -.00064779  00000-0 -40862-2 0  9997","LAUNCH_DATE":"2021-11-13","PERIOD":"95.436","MEAN_MOTION_DDOT":"0.0000000000000","EPOCH":"2022-03-30T22:00:00.999936","INCLINATION":"53.2155","REF_FRAME":"TEME","NORAD_CAT_ID":"49410","GP_ID":"200099356"},{"GP_ID":"200046936","REF_FRAME":"TEME","INCLINATION":"53.2159","MEAN_MOTION_DDOT":"0.0000000000000","EPOCH":"2022-03-30T22:00:00.999936","NORAD_CAT_ID":"49411","TLE_LINE1":"1 49411U 21104D   22089.91667824 -.00042565  00000-0 -26714-2 0  9997","REV_AT_EPOCH":"2249","SITE":"AFETR","ELEMENT_SET_NO":"999","PERIOD":"95.437","LAUNCH_DATE":"2021-11-13","MEAN_MOTION_DOT":"-0.00042565","OBJECT_ID":"2021-104D","SEMIMAJOR_AXIS":"6917.850","BSTAR":"-0.00267140000000","DECAY_DATE":null,"PERIAPSIS":"538.377","FILE":"3380647","COUNTRY_CODE":"US","MEAN_ANOMALY":"310.8516","MEAN_MOTION":"15.08849797","CLASSIFICATION_TYPE":"U","ARG_OF_PERICENTER":"38.6367","TIME_SYSTEM":"UTC","ECCENTRICITY":"0.00019350","CENTER_NAME":"EARTH","EPHEMERIS_TYPE":"0","RCS_SIZE":"LARGE","MEAN_ELEMENT_THEORY":"SGP4","OBJECT_NAME":"STARLINK-3162","TLE_LINE2":"2 49411  53.2159 202.5167 0001935  38.6367 310.8516 15.08849797 22499","RA_OF_ASC_NODE":"202.5167","APOAPSIS":"541.054","OBJECT_TYPE":"PAYLOAD"}];
